[{"OBJECT_NAME":"STARLINK-1683","OBJECT_ID":"2020-070AY","EPOCH":"2026-03-10T00:00:02.999808","MEAN_MOTION":15.80836783,"ECCENTRICITY":0.00071266,"INCLINATION":53.0104,"RA_OF_ASC_NODE":69.9116,"ARG_OF_PERICENTER":22.2576,"MEAN_ANOMALY":140.1673,"EPHEMERIS_TYPE":0,"CLASSIFICATION_TYPE":"U","NORAD_CAT_ID":46578,"ELEMENT_SET_NO":999,"REV_AT_EPOCH":592,"BSTAR":0.0011834415,"MEAN_MOTION_DOT":0.00239404,"MEAN_MOTION_DDOT":0},{"OBJECT_NAME":"STARLINK-36809","OBJECT_ID":"2026-036AB","EPOCH":"2026-03-09T19:39:55.888704","MEAN_MOTION":15.82120796,"ECCENTRICITY":0.00018611,"INCLINATION":42.9989,"RA_OF_ASC_NODE":248.7448,"ARG_OF_PERICENTER":299.1814,"MEAN_ANOMALY":60.8872,"EPHEMERIS_TYPE":0,"CLASSIFICATION_TYPE":"U","NORAD_CAT_ID":67929,"ELEMENT_SET_NO":999,"REV_AT_EPOCH":369,"BSTAR":0.0017709307,"MEAN_MOTION_DOT":0.00391646,"MEAN_MOTION_DDOT":0}]
